COSMOS 2534 [GLONASS-M] 
1 44299U 19030A   26186.99788829  .00000109  00000+0  00000+0 0  9992
2 44299  64.3704 191.9829 0013530 275.0373 255.0429  2.13102259 55329
BEIDOU-3 IGSO-2         
1 44337U 19035A   26187.81240304 -.00000075  00000+0  00000+0 0  9996
2 44337  55.2502 158.6905 0039670 216.4592 321.0694  1.00260595 25864
NAVSTAR 78 (USA 293)    
1 44506U 19056A   26187.84559654 -.00000070  00000+0  00000+0 0  9996
2 44506  55.6268 330.3626 0063060 197.9974 344.1800  2.00570005 50461
BEIDOU-3 M24            
1 44542U 19061A   26187.57277898  .00000115  00000+0  00000+0 0  9998
2 44542  54.3973 182.0739 0008562 359.0246   0.9793  1.86229381 46156
BEIDOU-3 M23            
1 44543U 19061B   26187.27402068  .00000112  00000+0  00000+0 0  9992
2 44543  54.3960 182.0526 0005864 339.2587  91.9188  1.86227560 46152
EUTELSAT 5 WEST B       
1 44624U 19067A   26187.85887615 -.00000027  00000+0  00000+0 0  9993
2 44624   0.0657 338.9665 0003196 127.6580 122.4022  1.00271387 24635
BEIDOU-3 M22            
1 44793U 19078A   26186.33900275 -.00000058  00000+0  00000+0 0  9996
2 44793  53.9186 299.1896 0005914  49.8831 310.1966  1.86227646 44980
BEIDOU-3 M21            
1 44794U 19078B   26186.47887781 -.00000058  00000+0  00000+0 0  9998
2 44794  53.8912 299.1453 0003864  48.4464 311.6147  1.86228113 44993
COSMOS 2544 [GLONASS-M] 
1 44850U 19088A   26183.51498774 -.00000008  00000+0  00000+0 0  9999
2 44850  65.5733  73.2191 0012628 256.5667 103.3590  2.13103168 51047
BEIDOU-3 M19            
1 44864U 19090A   26187.52972035 -.00000041  00000+0  00000+0 0  9996
2 44864  56.5750  62.1521 0017115 297.4119 244.6578  1.86231747 44598
BEIDOU-3 M20            
1 44865U 19090B   26187.39672209 -.00000041  00000+0  00000+0 0  9992
2 44865  56.5764  62.1912 0014971 312.1659 230.3203  1.86231645 44571
BEIDOU-3 G2             
1 45344U 20017A   26187.87579008 -.00000127  00000+0  00000+0 0  9997
2 45344   2.9014  47.6135 0002459  51.8682 220.7363  1.00270817 23457
COSMOS 2545 [GLONASS-M] 
1 45358U 20018A   26187.46401147 -.00000047  00000+0  00000+0 0  9997
2 45358  64.3426 311.7416 0009076 229.9592 129.9755  2.13102810 49071
BEIDOU-3 G3             
1 45807U 20040A   26187.81049638 -.00000340  00000+0  00000+0 0  9999
2 45807   2.4924  67.4782 0002170 334.6376 284.9927  1.00269061 22261
NAVSTAR 79 (USA 304)    
1 45854U 20041A   26187.18030691 -.00000055  00000+0  00000+0 0  9994
2 45854  56.6823  28.2076 0064724 204.5515 154.8185  2.00558250 44410
GALAXY 30 (G-30)        
1 46114U 20056C   26187.76375412  .00000052  00000+0  00000+0 0  9993
2 46114   0.0206  38.7570 0002186  67.2773 328.6685  1.00270907 21484
COSMOS 2547 [GLONASS-K] 
1 46805U 20075A   26187.65368286  .00000115  00000+0  00000+0 0  9990
2 46805  64.6011 191.8258 0009443 239.8670 120.0683  2.13100180 44321
NAVSTAR 80 (USA 309)    
1 46826U 20078A   26187.65524564  .00000093  00000+0  00000+0 0  9994
2 46826  53.9784 209.9892 0074292 207.6007 111.6968  2.00564948 41891
NAVSTAR 81 (USA 319)    
1 48859U 21054A   26186.97152108 -.00000070  00000+0  00000+0 0  9998
2 48859  55.1649 331.7056 0026142 228.4455 143.5040  2.00567861 37132
QZS-1R (MICHIBIKI-1R)   
1 49336U 21096A   26186.60108073 -.00000258  00000+0  00000+0 0  9995
2 49336  37.4964  79.3119 0755511 272.0883 281.1819  1.00249302 17193
GSAT0223 (GALILEO 27)   
1 49809U 21116A   26184.42092904 -.00000075  00000+0  00000+0 0  9993
2 49809  57.1558 341.2375 0001787 186.7549 176.0990  1.70476367 28464
GSAT0224 (GALILEO 28)   
1 49810U 21116B   26184.81984321 -.00000074  00000+0  00000+0 0  9990
2 49810  57.1559 341.2257 0001573 171.0762 189.2294  1.70476408 28495
COSMOS 2557 [GLONASS-K] 
1 52984U 22075A   26186.87934741 -.00000046  00000+0  00000+0 0  9999
2 52984  64.2867 313.8270 0010577 272.7453  87.1460  2.13102489 31119
COSMOS 2559 [GLONASS-K] 
1 54031U 22130A   26187.16828882 -.00000047  00000+0  00000+0 0  9998
2 54031  64.2589 313.8996 0012939 180.0973 179.9152  2.13101697 29094
COSMOS 2564 [GLONASS-M] 
1 54377U 22161A   26187.48071510  .00000114  00000+0  00000+0 0  9992
2 54377  64.7434 192.0712 0012255 225.0999 134.8296  2.13102005 28040
NAVSTAR 82 (USA 343)    
1 55268U 23009A   26187.14590086  .00000077  00000+0  00000+0 0  9999
2 55268  55.1244 147.7740 0006208 319.3269 217.0809  2.00570238 25627
BEIDOU-3 G4             
1 56564U 23066A   26187.31732966 -.00000268  00000+0  00000+0 0  9999
2 56564   0.4680 336.2679 0005056 178.9368  23.3032  1.00266978 11587
NVS-01 (IRNSS-1J)       
1 56759U 23076A   26187.74295403 -.00000320  00000+0  00000+0 0  9992
2 56759   2.1228 243.4778 0003213   7.6961  70.5707  1.00269341 11310
COSMOS 2569 [GLONASS-K2]
1 57517U 23114A   26187.49303193 -.00000017  00000+0  00000+0 0  9999
2 57517  65.3129  71.9697 0009975 296.4078  63.5545  2.13103771 22678
BEIDOU-3 M28            
1 58654U 23207A   26186.01893222 -.00000039  00000+0  00000+0 0  9993
2 58654  55.7683  61.7017 0002706 358.4998   1.5667  1.86229766 17175
BEIDOU-3 M26            
1 58655U 23207B   26186.35338463 -.00000040  00000+0  00000+0 0  9994
2 58655  55.7709  61.6769 0002358 323.5408  36.5098  1.86229736 17162
